[
    {
        "Altitude(m)": 624790.8264151571,
        "Argument of Periapsis(deg)": 0.0,
        "Eccentricity": 0.0,
        "Inclination(deg)": 60.0,
        "Latitude(deg)": -59.1472106432972,
        "Longitude(deg)": -33.965247348494266,
        "Mean Anomaly(deg)": -81.8182,
        "RAAN(deg)": 140.0,
        "Satellite Name": "Test1 633",
        "Satellite Number": 633,
        "Semi-Major Axis(m)": 6980739.136638005,
        "Time(s)": 0
    },
    {
        "Altitude(m)": 624737.4809996036,
        "Argument of Periapsis(deg)": 0.00010418945913296404,
        "Eccentricity": 0.0,
        "Inclination(deg)": 60.0,
        "Latitude(deg)": -58.99466405418281,
        "Longitude(deg)": -32.8457431438888,
        "Mean Anomaly(deg)": -81.19809385453816,
        "RAAN(deg)": 139.99957995086024,
        "Satellite Name": "Test1 633",
        "Satellite Number": 633,
        "Semi-Major Axis(m)": 6980739.136638005,
        "Time(s)": 10
    }
]